{"type": "FeatureCollection", "features": [{"type": "Feature", "id": 1, "geometry": {"type": "Polygon", "coordinates": [[[-76.66218084245789, 39.35503416698629], [-76.6621849738973, 39.35503492556919], [-76.6625814301525, 39.35510772857137], [-76.66284349903333, 39.35517609435489], [-76.66294505104777, 39.35520258622061], [-76.6631707302324, 39.35526625048011], [-76.66330079781109, 39.35530294263144], [-76.66335068922993, 39.35531852506649], [-76.66339397365533, 39.355332044787914], [-76.66353978089889, 39.355375644467806], [-76.66376844729876, 39.35544402068663], [-76.66401839503206, 39.35550924973103], [-76.66428943703326, 39.355588783670875], [-76.66448987624615, 39.35564220576839], [-76.66498844730557, 39.3557491561606], [-76.66543855157948, 39.35582250495577], [-76.66576236338047, 39.35586752423912], [-76.66615906710436, 39.35592304685398], [-76.66651819432806, 39.35597863180689], [-76.66696926393988, 39.35603533539722], [-76.66731562776353, 39.35607921177566], [-76.66791156534816, 39.35616326084309], [-76.6682327012084, 39.356213242339834], [-76.66923106086897, 39.35636087850565], [-76.66961447826912, 39.356422355494736], [-76.6700270727303, 39.35648442923266], [-76.67046617035243, 39.35655000851345], [-76.67079279079215, 39.35659299242011], [-76.670808555968, 39.35659506682243], [-76.6715568086353, 39.35672293211966], [-76.67213459794874, 39.35681463198684], [-76.6722766177664, 39.356835528709446], [-76.67301899666504, 39.35694475813208], [-76.67326902785702, 39.35698303106531], [-76.67375194109154, 39.357038937755476], [-76.67410242227164, 39.35705483847276], [-76.67436413474245, 39.35705196054784], [-76.67459590844365, 39.35702291738944], [-76.67472552862912, 39.35700182670569], [-76.67486651660406, 39.356964628765255], [-76.67490832030454, 39.35695359949601], [-76.67493754517366, 39.35694519712477], [-76.67517657076101, 39.35687647638734], [-76.67552942684858, 39.356757985505844], [-76.67585273859866, 39.356624693144795], [-76.67621732996699, 39.356453763575], [-76.67689564013027, 39.35612051104051], [-76.67745244455563, 39.35586962995208], [-76.67780638517374, 39.35570587123553], [-76.67868753569176, 39.35528565347881], [-76.6787384149756, 39.35525758133129], [-76.67883422047946, 39.355204721020506], [-76.6791168305057, 39.35507611302562], [-76.67955712804041, 39.35487569304943], [-76.67961163352386, 39.35484788261115], [-76.67984246906178, 39.35473010279471], [-76.68015082821685, 39.35457565353131], [-76.68043786881638, 39.35444344963982], [-76.68063545325546, 39.354344741128486], [-76.68082464367657, 39.35425025918985], [-76.6811976357647, 39.354074532371115], [-76.6815590748926, 39.35391095558538], [-76.68208445034873, 39.35366236783204], [-76.68254827138436, 39.35343780813466], [-76.68295668758192, 39.353246212933655], [-76.68340318583245, 39.353039102719414], [-76.68411112789444, 39.352686842910636], [-76.68454041155016, 39.35247265003221], [-76.6848893631519, 39.35233064813347], [-76.68511174360727, 39.35222228403098], [-76.68529336850358, 39.352134056372016], [-76.68565768909079, 39.351949981006506], [-76.68578360453016, 39.35188816557328], [-76.68611780055804, 39.35172409928303], [-76.68662637251727, 39.351469955378015], [-76.68671131898205, 39.35142874137673], [-76.68729747736687, 39.35114434631808], [-76.68749062128754, 39.35104808245404], [-76.68760007510954, 39.35098608530132], [-76.6877118299643, 39.35093342492912], [-76.68795221277539, 39.350820404978684], [-76.68827471683512, 39.350658247999604], [-76.68849977630694, 39.3505416481895], [-76.68861049454222, 39.35049303754612], [-76.68872607111453, 39.35043708240998], [-76.68892809772854, 39.35033927420127], [-76.68922399693082, 39.350195234674956], [-76.68948578837441, 39.35006774641686], [-76.69002401284375, 39.34979925419864], [-76.6901436245608, 39.34973796690751], [-76.69019026329897, 39.349715425364934], [-76.69024284403133, 39.349690012583544], [-76.69059275979892, 39.34952414552226], [-76.69093877026874, 39.349340939596864], [-76.69122006159806, 39.34919994346393], [-76.69148507532437, 39.34904105846414], [-76.69158748333584, 39.34897149087999], [-76.69185345995716, 39.348794075722196], [-76.69263365472571, 39.3481715250707], [-76.6928952800955, 39.34797693703013], [-76.6931205800895, 39.34780078544453], [-76.6931993586522, 39.34773936231598], [-76.69362527992286, 39.34740727070734], [-76.69377071098596, 39.34729354546142], [-76.69386196644778, 39.34722218497201], [-76.69392818463012, 39.34717040260511], [-76.69417697408, 39.346979384823335], [-76.69440890644994, 39.34680118888625], [-76.69451710853767, 39.34671876217989], [-76.69459771390865, 39.34665685554495], [-76.6947281962571, 39.34655664282282], [-76.69504889988704, 39.34629116540941], [-76.6953112824886, 39.346123170977506], [-76.69546787778624, 39.34604527881631], [-76.69555357037086, 39.34600265426139], [-76.69561327480497, 39.34597649998303], [-76.69572140028767, 39.34592913332776], [-76.69607068522957, 39.34579996965606], [-76.69627729441684, 39.34575348755174], [-76.69663778617797, 39.34568990082485], [-76.69681049240313, 39.34565975622842], [-76.69685061914817, 39.345652751945565], [-76.69685673497905, 39.34565168502296], [-76.69671755084798, 39.345537732623626], [-76.6964709200242, 39.3453325566077], [-76.69630180326068, 39.34519141679197], [-76.69575834489599, 39.34473598100594], [-76.69548088944775, 39.34450447094662], [-76.6951682270049, 39.3442387244965], [-76.69490046296711, 39.34401530159365], [-76.69468598529697, 39.34383783631603], [-76.69433010588517, 39.343550523245014], [-76.6941636238693, 39.34341504736837], [-76.69391853491369, 39.343263751352836], [-76.69365658323672, 39.34313025819258], [-76.69347306390254, 39.343051362104816], [-76.69318270827425, 39.34294438734252], [-76.69288122044456, 39.34285729189321], [-76.69257124176629, 39.34279110312194], [-76.69238088248181, 39.34276143643993], [-76.69203583300337, 39.3427317057238], [-76.69179555254736, 39.34272601659532], [-76.69168538346796, 39.34272340831971], [-76.69089381400845, 39.34272373207262], [-76.69037625181886, 39.34272700358092], [-76.69000670052688, 39.34274147388626], [-76.68963724601088, 39.34273380572896], [-76.68950360840198, 39.34272406982669], [-76.68936110294642, 39.34271368702771], [-76.68909871924234, 39.34268004698326], [-76.68895517378698, 39.34265873493026], [-76.68868273081159, 39.34260104362746], [-76.68841877799845, 39.342522614769926], [-76.68754129388961, 39.3422604945368], [-76.68705976238822, 39.342113017761484], [-76.68689064302077, 39.3420653613268], [-76.68688332778989, 39.34206329985942], [-76.68685621785251, 39.34205708368453], [-76.68619133522768, 39.341904621916235], [-76.68538855401486, 39.34174392484035], [-76.68507330958897, 39.341671092499205], [-76.68489167274666, 39.34175597284457], [-76.68488508993202, 39.34175904925367], [-76.6846220022526, 39.34170421452575], [-76.68417286113576, 39.341610598847595], [-76.68364707297363, 39.34147843237922], [-76.68317604984789, 39.34135550415279], [-76.68299556370476, 39.34129324553613], [-76.68293982322251, 39.341275874808424], [-76.68256127897551, 39.34115788815072], [-76.68217951073039, 39.341040003242895], [-76.68180876987675, 39.340926948798476], [-76.6813665537912, 39.340787792289746], [-76.68087976103018, 39.34063495601987], [-76.68037621608333, 39.340473493493576], [-76.67880339666301, 39.33996300770099], [-76.67840223787113, 39.339835451033544], [-76.67812994678687, 39.33974856499073], [-76.67781760543139, 39.33962502176828], [-76.67750084026135, 39.33950266536394], [-76.67719165718044, 39.33936591610987], [-76.67695794901312, 39.33925047879219], [-76.67670933880954, 39.33910823170477], [-76.67659301290377, 39.339031897037216], [-76.67655423829417, 39.33900656681856], [-76.67623100313232, 39.33878668627442], [-76.67590756765931, 39.33854509092185], [-76.6755499387397, 39.338276420287436], [-76.67522052720447, 39.33802292567752], [-76.6749674580842, 39.33779435315134], [-76.67490396480689, 39.337728370973565], [-76.67484886559104, 39.33767111137024], [-76.67461382447584, 39.3374268528009], [-76.67441330457568, 39.337208375896815], [-76.67419609239953, 39.336967888605464], [-76.67402631273673, 39.336792395078746], [-76.67388790317631, 39.33661887448291], [-76.67360253873204, 39.33630355310531], [-76.67347939499753, 39.33617400192641], [-76.6733390923042, 39.33602724463509], [-76.67320932181055, 39.33589818907048], [-76.67302531467654, 39.33574238620224], [-76.67278974231108, 39.33555641046509], [-76.67245564477999, 39.335365012899736], [-76.67207887648202, 39.335227719327186], [-76.67180107759648, 39.335095330724634], [-76.67157878945848, 39.33500016404163], [-76.67138915639872, 39.33491503876054], [-76.67108551044466, 39.334829423975734], [-76.67105285091529, 39.33482023776016], [-76.67063566117766, 39.33472864013634], [-76.67029567580579, 39.334665569830925], [-76.6701384980489, 39.33463424321184], [-76.67006123301009, 39.334618754230235], [-76.66966175497242, 39.334520683249536], [-76.66919579244198, 39.33436905733757], [-76.66898099243343, 39.33428781519475], [-76.6687656811543, 39.3342063784557], [-76.668303266186, 39.3340537294232], [-76.6678487782831, 39.333907106231834], [-76.66781048097914, 39.33389479290402], [-76.66755534470639, 39.33381275948329], [-76.66740675665434, 39.33374112888313], [-76.66737280074915, 39.333724902243105], [-76.66720492886897, 39.333619927039294], [-76.66711764641812, 39.33355110879804], [-76.66709397630183, 39.33353244495988], [-76.66704606298349, 39.33347860136412], [-76.66669124479074, 39.332999881419695], [-76.66667376181066, 39.332958992905425], [-76.66663605608055, 39.332868384385456], [-76.66663487133091, 39.33286553646835], [-76.66662067296791, 39.33278399035877], [-76.6666324808986, 39.332715557207216], [-76.66667495983194, 39.3326289474924], [-76.66667576319422, 39.332627310411794], [-76.66668554230692, 39.33261515464405], [-76.66590297874048, 39.33298734724651], [-76.6658922053842, 39.33297588705498], [-76.66572420543679, 39.33254788632821], [-76.66563820499755, 39.33223438639103], [-76.66555220531897, 39.3319208863603], [-76.6655022058328, 39.33173788619429], [-76.6654522054449, 39.331554885993306], [-76.66544553838035, 39.331530612608105], [-76.66528370477013, 39.33094138677366], [-76.66514520584573, 39.33043888616109], [-76.6647246969021, 39.32897938739782], [-76.6643042052754, 39.32751988556868], [-76.66426884381157, 39.32735966850221], [-76.66422320477155, 39.32715288580708], [-76.66421480997623, 39.32710839369233], [-76.6642082050333, 39.32707338526223], [-76.66419320532445, 39.3269938856142], [-76.66418320543146, 39.32689038539976], [-76.66417320440786, 39.32678688517779], [-76.6641627043584, 39.32669888540306], [-76.66415220433502, 39.32661088562496], [-76.66414470496994, 39.326531385771645], [-76.66413720446621, 39.3264518850119], [-76.66413920532781, 39.326354385623944], [-76.66414120502837, 39.326256885328995], [-76.66414170453656, 39.326118384982564], [-76.66414220519819, 39.3259798855343], [-76.66416420435799, 39.32583938569543], [-76.6641862045946, 39.32569888494892], [-76.66422120483006, 39.32549338548342], [-76.66425620486689, 39.325287885093715], [-76.66438670680019, 39.32454288552374], [-76.6645172048356, 39.323797884733374], [-76.66457390218402, 39.32350961048621], [-76.6646932051773, 39.32231388467011], [-76.66468257171024, 39.32219107767848], [-76.6642207467618, 39.322052462443025], [-76.66382715509168, 39.3219243325329], [-76.66382180507378, 39.32193444165551], [-76.66369823548683, 39.32218341201287], [-76.66358252762869, 39.32235810640784], [-76.66348390224535, 39.32247107439488], [-76.66333298767145, 39.32261563944047], [-76.66315253803432, 39.322745876094295], [-76.66291859693325, 39.32288162297966], [-76.66264279300877, 39.322993739686915], [-76.6622510941388, 39.32313263351448], [-76.66182708011982, 39.323284304768165], [-76.66154553286245, 39.3233834315817], [-76.66146548146439, 39.32341161517094], [-76.66116672586253, 39.32352398656811], [-76.66116247947723, 39.32352558396523], [-76.66095509512517, 39.32360678925897], [-76.6604646141963, 39.32379652766479], [-76.66030478015048, 39.32386418858477], [-76.65969145580665, 39.32414691599165], [-76.65944012580225, 39.32426026880259], [-76.65924795733851, 39.3243465890844], [-76.65922295764233, 39.324357819203414], [-76.65908103168182, 39.32442288847813], [-76.65894280154949, 39.32448626318736], [-76.65868464787145, 39.324604618955334], [-76.65827278364677, 39.32479344512303], [-76.65817786765805, 39.324836959936476], [-76.65810589042033, 39.32490226566395], [-76.65809999170902, 39.32490761786998], [-76.65809460552347, 39.32491250497862], [-76.65807510505674, 39.324930198410414], [-76.65783972228148, 39.325136951399315], [-76.65770912947558, 39.325278992169366], [-76.65758486250957, 39.3253922245534], [-76.65746000671203, 39.325443854676365], [-76.6574046417743, 39.325496633924544], [-76.65737155723349, 39.325528171784306], [-76.65734192722213, 39.325556417560456], [-76.65721854588523, 39.32566879461967], [-76.6571226853591, 39.325759759967184], [-76.65694110578701, 39.32593206579784], [-76.6568406455986, 39.32604039202649], [-76.65680744715154, 39.32607618993239], [-76.65671609128886, 39.326188215886646], [-76.65666008658215, 39.326272048017564], [-76.65654653355264, 39.32644201900429], [-76.65648968920493, 39.32653509838218], [-76.65627396175509, 39.32692886405934], [-76.65626649051956, 39.32694250025964], [-76.6562613862422, 39.32695377081006], [-76.6560778830372, 39.327358993257334], [-76.65591394974344, 39.32775236657296], [-76.65577650907056, 39.328082152324974], [-76.6556183260126, 39.328460993106745], [-76.65547432015772, 39.32880587375689], [-76.65543763307468, 39.32889351708542], [-76.65535569257877, 39.329089269698954], [-76.65534480929736, 39.32911019819154], [-76.65529320731042, 39.329209422785944], [-76.65519772312443, 39.329348382135684], [-76.65510301439109, 39.32944682894297], [-76.65507642931306, 39.32947446334112], [-76.65506614250779, 39.32948194449075], [-76.65502672603785, 39.32951060860904], [-76.65473024773026, 39.329726213929945], [-76.65452097722093, 39.32987839828387], [-76.65445842111703, 39.32992388952141], [-76.6544026658638, 39.32996443489878], [-76.65414911146148, 39.3301488198112], [-76.65400117112422, 39.33025133448663], [-76.65406316636277, 39.330382471244725], [-76.65439111913372, 39.33093840089528], [-76.65460180800726, 39.33129521260714], [-76.6546187791456, 39.33132275778506], [-76.65466528942287, 39.33139929581886], [-76.65473906378746, 39.3315207017708], [-76.65487723573656, 39.33175878228811], [-76.65508197700596, 39.332111564544995], [-76.65536525769625, 39.332599669815735], [-76.65543809922904, 39.332705413057], [-76.65559490286837, 39.33290251732281], [-76.65563626305857, 39.3329391871979], [-76.65574924425628, 39.33306083520427], [-76.65583830519132, 39.33319407953705], [-76.65590125238646, 39.333335826969765], [-76.65590282260644, 39.333342330453505], [-76.65593677612866, 39.33348298685145], [-76.65593903402967, 39.333577227771265], [-76.65594081734184, 39.33365167429348], [-76.65592596199129, 39.33399764359198], [-76.65592462650945, 39.334038364233564], [-76.65592454993413, 39.33404028079796], [-76.65592367151774, 39.334064257899755], [-76.6559134451019, 39.33434331884733], [-76.65591807988883, 39.33455030141197], [-76.65595525975526, 39.33476360157314], [-76.65600729553833, 39.33492150965503], [-76.65601740160473, 39.334949029102], [-76.6560860616212, 39.33510569411332], [-76.65613136116822, 39.33521291724508], [-76.65619020619002, 39.33535219879472], [-76.65623942604466, 39.33550042809658], [-76.65625785478416, 39.335678143333375], [-76.65627534731449, 39.335846819536215], [-76.65629344601676, 39.336021350546595], [-76.65631184292265, 39.33619874949035], [-76.65633006507774, 39.33636292586243], [-76.65633659807965, 39.33641454328441], [-76.65634642779573, 39.336492200995046], [-76.6563673879581, 39.33670079841953], [-76.65639513473953, 39.33697693645803], [-76.65642136906384, 39.33723802038821], [-76.65642990288276, 39.33732295140709], [-76.6564548296915, 39.33746853519073], [-76.65650594962149, 39.33768060115616], [-76.65656780618998, 39.3377988416813], [-76.65659218398456, 39.33784378532916], [-76.65659801860716, 39.337854542861024], [-76.6566356234193, 39.33791623216113], [-76.65674231684574, 39.33806016668768], [-76.65678179324156, 39.33810573265564], [-76.65687108740057, 39.33820879898374], [-76.6568843166844, 39.338220539178366], [-76.65694244172421, 39.33827212335166], [-76.65713848400915, 39.33844609953904], [-76.65721234286343, 39.33851164417237], [-76.65736689514237, 39.338648800817325], [-76.657610343306, 39.3388733002259], [-76.65768460447235, 39.33896188768178], [-76.65773976309163, 39.33905536096209], [-76.65774728886585, 39.339068114001996], [-76.65781383509942, 39.339289661291936], [-76.65781440872655, 39.33929266064076], [-76.6579224675711, 39.33985743228792], [-76.65798779971949, 39.34014864218551], [-76.65798817909813, 39.34014910987498], [-76.65808533451643, 39.34026869881322], [-76.65819332185823, 39.340512500313544], [-76.65824000499121, 39.34063824215954], [-76.65841528592131, 39.34076675908284], [-76.6584075437495, 39.34076731576611], [-76.65824772338168, 39.340778798757555], [-76.65822693376585, 39.3407826844827], [-76.65820129157537, 39.3408761279297], [-76.65815639276978, 39.341024292349], [-76.65814694972448, 39.34105545586904], [-76.65805951113022, 39.341224049724026], [-76.6579580184669, 39.34137441118534], [-76.65774712344546, 39.34157387344909], [-76.6575281318828, 39.341802311201135], [-76.65736003397025, 39.34201648316328], [-76.65725003074671, 39.34218947109339], [-76.65717765398766, 39.342441499040156], [-76.65716102766763, 39.342498762199334], [-76.65714975927665, 39.34263497227894], [-76.65719401139921, 39.34280635076783], [-76.65719447071709, 39.34280732130764], [-76.65728894960016, 39.34300687644278], [-76.65743639255845, 39.34322591398611], [-76.65755564910764, 39.343333677814044], [-76.65798973503001, 39.34368567659476], [-76.65838555560975, 39.34400101216847], [-76.65858544816875, 39.34415997055751], [-76.65860173422969, 39.34417391812447], [-76.65884471941352, 39.34437933272768], [-76.65903684377719, 39.3445916350278], [-76.6592124582343, 39.34483649064603], [-76.65934391824399, 39.34507315369769], [-76.65948283670728, 39.345412793127295], [-76.6595456021, 39.345596406727864], [-76.6595460609828, 39.34559892743508], [-76.65957445309989, 39.345754869723876], [-76.65956517690272, 39.34593775945164], [-76.65953845613235, 39.34607169551801], [-76.65951899200492, 39.34616738722702], [-76.65943652766906, 39.34649643296423], [-76.65942754542499, 39.34652557930397], [-76.65934112229031, 39.3468499791507], [-76.65924709443027, 39.34719357510832], [-76.65914858430429, 39.34754968729102], [-76.65911875243377, 39.34773103016499], [-76.65911796027062, 39.34785160035629], [-76.65916740717766, 39.348230960763786], [-76.65920957226842, 39.34856259848945], [-76.65924533259341, 39.348847199761764], [-76.65927036478908, 39.34906485197559], [-76.65927745747278, 39.34910740106803], [-76.65933043401891, 39.34942522648091], [-76.6594181386819, 39.34992172361529], [-76.65942432001005, 39.34995671642579], [-76.65948228549478, 39.35021993515081], [-76.65953042541982, 39.35050405770937], [-76.65955655444286, 39.35067795579188], [-76.65957971326173, 39.3508255922447], [-76.65958573912104, 39.35085941182058], [-76.65960681851963, 39.35098010286062], [-76.65961093492983, 39.35104360354532], [-76.65962247314403, 39.351217458441226], [-76.65970357195117, 39.351818950674605], [-76.65974453589017, 39.352125531125544], [-76.65977432382873, 39.35236618997949], [-76.65981009945358, 39.352555900398194], [-76.6598392010617, 39.35275520239367], [-76.65986830166891, 39.3529545052667], [-76.65995230716314, 39.353319551014394], [-76.66007364448132, 39.353734638950996], [-76.66018145473613, 39.354113994863276], [-76.66024211910884, 39.354368297912046], [-76.66035803459609, 39.354716105146075], [-76.66045694082517, 39.3550165039829], [-76.66050402614451, 39.35515339844244], [-76.66050448682854, 39.35515507875246], [-76.66060095984656, 39.3551272532479], [-76.66096958242565, 39.35506758873138], [-76.66123645453983, 39.35503974946548], [-76.66155164727087, 39.35501878892394], [-76.66186577030913, 39.35501164181839], [-76.66218084245789, 39.35503416698629]]]}, "properties": {"OBJECTID": 1, "Name": "Park Heights"}}, {"type": "Feature", "id": 2, "geometry": {"type": "MultiPolygon", "coordinates": [[[[-76.64719557696833, 39.29293042438521], [-76.64718856809492, 39.292813944316364], [-76.64717723710234, 39.29261764678821], [-76.64716834950363, 39.2924551971727], [-76.64715783562077, 39.29224053741479], [-76.64714589804267, 39.29199680048842], [-76.64712259776185, 39.291620079264725], [-76.64710661243257, 39.29128199008261], [-76.64708217150995, 39.290868545915025], [-76.6470743099287, 39.29070102891754], [-76.64706779516786, 39.290562205124225], [-76.64705936112946, 39.290393501892595], [-76.64704521455124, 39.29012232917415], [-76.64704202329806, 39.290061070683265], [-76.6470290653167, 39.28981056671916], [-76.64702457066741, 39.289711907494535], [-76.64701402579448, 39.289474991497364], [-76.64699700311813, 39.289168298527244], [-76.64698989679903, 39.28904801411475], [-76.6469798880553, 39.28887996722543], [-76.64696379245908, 39.288596671501935], [-76.64696127470228, 39.288537064294836], [-76.6469423785622, 39.28816344548055], [-76.64693663569903, 39.288075742893], [-76.64690572171841, 39.28763207726505], [-76.64689229901741, 39.28740106954792], [-76.64687450915015, 39.28715975390293], [-76.64686228701417, 39.286953290056964], [-76.64685048060304, 39.28681281530771], [-76.646849780267, 39.286804479372805], [-76.64641670786058, 39.28694954651036], [-76.64602362189271, 39.28708791829995], [-76.64564853216768, 39.28725318479839], [-76.64518896350202, 39.28737052856773], [-76.64516346036292, 39.28737704059328], [-76.6451616788337, 39.28737749550021], [-76.64515881298811, 39.28732522206312], [-76.64515520460147, 39.287259417871795], [-76.64515231288036, 39.28721394148755], [-76.64514251267443, 39.28705981350624], [-76.64510922334162, 39.286563632063206], [-76.64509184836805, 39.28624063820773], [-76.64508241765253, 39.2861139547486], [-76.64507364193261, 39.28599606107813], [-76.64505585688826, 39.28571431443274], [-76.64505441128395, 39.28569142174925], [-76.64504023797394, 39.28543518651073], [-76.64502927160562, 39.28524365264443], [-76.64501793924005, 39.28503701911543], [-76.64500382655255, 39.28476825803099], [-76.64498683655792, 39.28454547565233], [-76.64497257067362, 39.28430760204077], [-76.64496525081101, 39.284177038095976], [-76.64496040811711, 39.28409066844364], [-76.64494508240682, 39.283771397057876], [-76.64492415581056, 39.28348139514367], [-76.64490747981081, 39.283195295535016], [-76.64489161295728, 39.282923785267506], [-76.64488039423547, 39.28269552825672], [-76.64487517007709, 39.28259255548336], [-76.64485659904409, 39.28234057359302], [-76.64484449009534, 39.282108670268535], [-76.6448440723238, 39.282100670246656], [-76.64482741578456, 39.281855495750605], [-76.64481075819694, 39.28161032213166], [-76.64480917111361, 39.28157428147768], [-76.64480534476749, 39.28150074166529], [-76.64480151727031, 39.281427201847634], [-76.64479203758225, 39.28124802706629], [-76.64478255678307, 39.28106885227116], [-76.644771539244, 39.280888043340816], [-76.64476052175657, 39.280707235300525], [-76.6447485870968, 39.280548969636094], [-76.64473992419013, 39.28044305080806], [-76.64473644569966, 39.28040052253955], [-76.64471384945709, 39.28007746539709], [-76.64471261642808, 39.28005984547153], [-76.6446835645606, 39.2796444938268], [-76.64468354621125, 39.27964422354276], [-76.64468146980188, 39.27964504686319], [-76.64364847105787, 39.28005463660663], [-76.64164769496323, 39.2808777124443], [-76.63964687244604, 39.281700754000894], [-76.63958624800166, 39.28165447693969], [-76.63924145945606, 39.281391283407515], [-76.63883604884387, 39.28108181138305], [-76.63877044196727, 39.28113313230541], [-76.63868202605012, 39.281068949529086], [-76.6381805036228, 39.28069881947032], [-76.63793564587408, 39.280511177619815], [-76.6377001724052, 39.28033063877378], [-76.63746704069825, 39.28015407812938], [-76.63721058746025, 39.279959853999735], [-76.63700584409939, 39.27979898218995], [-76.63696718259772, 39.27976832416976], [-76.63691943445147, 39.27973021757119], [-76.63675499820963, 39.279590742294005], [-76.63674928252497, 39.27958589383088], [-76.63707961715036, 39.27932059921851], [-76.63731636813235, 39.27913463581215], [-76.63769321895754, 39.2788389373245], [-76.63807923459125, 39.27852656842012], [-76.6380829703343, 39.27852354526265], [-76.63782349230549, 39.27831785985063], [-76.63750722471052, 39.27807888296813], [-76.63727118447852, 39.27790195431365], [-76.63699696774174, 39.277695161309225], [-76.63645995190096, 39.27727806866926], [-76.63598098562868, 39.27690851283465], [-76.63547166076147, 39.27651826933355], [-76.63505426977751, 39.27619831925856], [-76.63490208470579, 39.276082535111875], [-76.63446446820765, 39.275746218900245], [-76.63419487856117, 39.27553620343466], [-76.6339563537661, 39.27572055635148], [-76.63391780342789, 39.27575035054973], [-76.6338255921755, 39.27582144769106], [-76.63353607764037, 39.27604962323194], [-76.63283599002952, 39.276604266965016], [-76.63284214857465, 39.27660899000117], [-76.63326261226983, 39.27693145803426], [-76.63346087181809, 39.27708337805312], [-76.63370287440245, 39.277268816424176], [-76.63420340042356, 39.27765080444694], [-76.63455392805427, 39.27792353137205], [-76.63454999147591, 39.27792659612916], [-76.63430077745035, 39.27812059327203], [-76.63389773154532, 39.27844210795823], [-76.63344596290169, 39.27879212695976], [-76.63320474384318, 39.27898579269653], [-76.63290187398574, 39.27921382661888], [-76.63236582994466, 39.279652563403616], [-76.63182053289381, 39.28006714629188], [-76.63151364542668, 39.27983181913474], [-76.63139698162237, 39.27974235869243], [-76.6313098955622, 39.27967567937608], [-76.63096945509247, 39.27941807497141], [-76.63071318672843, 39.27922097090467], [-76.63069368828204, 39.27920597405848], [-76.63042056232509, 39.27899628312263], [-76.63009197556067, 39.27875244012068], [-76.62982222086657, 39.278560123273884], [-76.62911752347885, 39.27805783820557], [-76.6287021918198, 39.277769102494815], [-76.62858205696111, 39.27769047519506], [-76.62846144884274, 39.277617508468616], [-76.62809424089959, 39.27751169479413], [-76.62802011089977, 39.27749033355429], [-76.62792113324194, 39.27767088155127], [-76.6275114035279, 39.278503709127094], [-76.62720089139997, 39.27919271091894], [-76.62716515028534, 39.27927170154492], [-76.62705163286986, 39.27953010772525], [-76.62686019627465, 39.279909927752925], [-76.62668115474797, 39.28028395078864], [-76.62654150456531, 39.28055634415771], [-76.6263438172482, 39.28049941241348], [-76.6260926500642, 39.28042707731568], [-76.6258953088186, 39.28037147003442], [-76.62582288331835, 39.2803510613647], [-76.62561777593864, 39.28029326524367], [-76.62543831180153, 39.280243615963535], [-76.62520108717216, 39.28017782330919], [-76.6247399080381, 39.280042850649195], [-76.62410069629091, 39.27983832436027], [-76.62390875443342, 39.279810940181946], [-76.62386123182569, 39.27991349115515], [-76.62368792449482, 39.2802874766972], [-76.6236246578368, 39.28042400071955], [-76.62343300492316, 39.28084087810119], [-76.62340436047373, 39.28091302650256], [-76.62334771975559, 39.28110177257099], [-76.62334233151799, 39.281118572523965], [-76.62332248310612, 39.28124107018624], [-76.62331996188892, 39.28125663357735], [-76.62332329494363, 39.281257563043205], [-76.6236281738705, 39.28134256162384], [-76.62391652981175, 39.28142636614281], [-76.62416479698335, 39.28149219578922], [-76.6244028010226, 39.28157824032199], [-76.62451690576331, 39.28162871091616], [-76.62471333170065, 39.28172766132826], [-76.6248007221982, 39.28178254559606], [-76.62494483999095, 39.281873056823365], [-76.62500379126826, 39.28191528630028], [-76.62520693841255, 39.282079465287076], [-76.62538881654262, 39.2822579891735], [-76.62555192156755, 39.28247952374898], [-76.6257042877205, 39.282727450408935], [-76.62590424692883, 39.28307865752946], [-76.62593990468987, 39.28314272786022], [-76.62612108903153, 39.28346828233711], [-76.62616531736012, 39.283547735150265], [-76.62628211153847, 39.28379347150074], [-76.62655763680385, 39.28425250649512], [-76.62676493093629, 39.2846248878573], [-76.62696741840881, 39.2849886323577], [-76.62700798114476, 39.28506149761572], [-76.62713733785732, 39.285293867752024], [-76.62724378312566, 39.28548507861916], [-76.6275372060045, 39.286037516376396], [-76.62755106475133, 39.28606170250705], [-76.62757334489199, 39.286100586025256], [-76.62776132235173, 39.28642864347306], [-76.62789242864261, 39.286657447596845], [-76.62791551858436, 39.286710625974976], [-76.62803642982631, 39.287091615333246], [-76.62805133671273, 39.28713858764868], [-76.62805485105098, 39.287152979416305], [-76.62806646004572, 39.287348341562634], [-76.62806233415445, 39.287529959618944], [-76.62807194260286, 39.28765014606174], [-76.62804791758519, 39.287947888358865], [-76.62800542534957, 39.288179023988434], [-76.627952508501, 39.288360686552906], [-76.62793680574522, 39.28841304394412], [-76.62786503522521, 39.288652349431665], [-76.62778363596408, 39.288923758063184], [-76.62775697741611, 39.289012643455905], [-76.62775014020787, 39.28903925365919], [-76.62772111687883, 39.28915221966922], [-76.62769304484593, 39.289261483858], [-76.62765356307135, 39.289415151761446], [-76.6275703744566, 39.28973893369766], [-76.62755139005529, 39.28981282588632], [-76.62749126440391, 39.290113446652796], [-76.62748653246094, 39.29013710721501], [-76.62745352557859, 39.29036745379062], [-76.62744215705109, 39.290513445277256], [-76.62743839916743, 39.29074692824348], [-76.62743566803205, 39.290916675811005], [-76.6274451377791, 39.29108677372528], [-76.6274529816413, 39.29122765845111], [-76.62752172836768, 39.29176102054834], [-76.62758706253737, 39.2923190615054], [-76.62763207337824, 39.29270350580573], [-76.62763404932251, 39.29272038598614], [-76.62764828222814, 39.29287782160623], [-76.62769862311383, 39.2931888573529], [-76.62772234944137, 39.29351388036797], [-76.627728177505, 39.29359371776853], [-76.62798825548597, 39.293586875238844], [-76.62799569273132, 39.29358649885187], [-76.62852939091046, 39.29355947228085], [-76.6289097005692, 39.29355141166732], [-76.62931136426764, 39.293542896563665], [-76.62984927851048, 39.293532372894774], [-76.63008833855673, 39.29350944580766], [-76.63044802622093, 39.29347625887967], [-76.63100151835346, 39.29345998165495], [-76.63121883401946, 39.29345671688959], [-76.63135621005195, 39.29345337385657], [-76.63151275504562, 39.29344801003595], [-76.63212705063337, 39.29342696133078], [-76.63237088625667, 39.2934200041958], [-76.63283318805885, 39.293414993289986], [-76.63324001739257, 39.29339588347788], [-76.6337556733428, 39.29337178087805], [-76.63394868461104, 39.29336666800627], [-76.63403236275805, 39.293346944471004], [-76.63457442365721, 39.293319974148496], [-76.6355145364309, 39.29329472425092], [-76.63619912636591, 39.29326856235383], [-76.63694968003747, 39.29323604911548], [-76.63736391546635, 39.293228782079076], [-76.63763876872072, 39.29321741496805], [-76.63788376849057, 39.29321150477331], [-76.63837162174042, 39.2931913586418], [-76.63886810807416, 39.2931801878589], [-76.6393200266429, 39.29316064162596], [-76.63951880165901, 39.29315576068879], [-76.63979357791432, 39.29314322001839], [-76.64029538008104, 39.29312879875862], [-76.64064346094678, 39.29311888284279], [-76.64119316394758, 39.29310353686057], [-76.6412252127027, 39.29310264210165], [-76.64128129835407, 39.293101411786076], [-76.64193239238, 39.293087125822225], [-76.64259154372735, 39.2930546861636], [-76.64263834360344, 39.29305238297164], [-76.64289937120266, 39.29305146073953], [-76.64334245763735, 39.293031529003166], [-76.64405055247084, 39.293009653310286], [-76.64415823546531, 39.29300571983474], [-76.64421974193229, 39.29300347316747], [-76.64443574490761, 39.2929964058073], [-76.64473125770364, 39.29298854714824], [-76.64500600035393, 39.29298285886739], [-76.64503736068015, 39.2929826086338], [-76.64546270701985, 39.29297720218005], [-76.64587779982777, 39.29296881870168], [-76.64613486067603, 39.292963155550666], [-76.64679270753099, 39.29294551577945], [-76.64719557696833, 39.29293042438521]]], [[[-76.64719601828412, 39.29293841813739], [-76.64719778293507, 39.292938352276764], [-76.6471973067446, 39.292930378236534], [-76.64719557696833, 39.29293042438521], [-76.64719601828412, 39.29293841813739]]]]}, "properties": {"OBJECTID": 2, "Name": "Southwest Partnership"}}, {"type": "Feature", "id": 3, "geometry": {"type": "MultiPolygon", "coordinates": [[[[-76.59499853431905, 39.31213854528771], [-76.59498017609378, 39.3120267739775], [-76.59497817269667, 39.311758737481796], [-76.59497103247358, 39.31165091229608], [-76.5949692594598, 39.311624132138114], [-76.59495647784962, 39.3114311030812], [-76.59494228444763, 39.31123576591372], [-76.59493146115258, 39.31104217070049], [-76.59491941544273, 39.31090811389434], [-76.59491031331324, 39.31080032244737], [-76.59490585340752, 39.31071494158079], [-76.59490274591577, 39.31065546929938], [-76.59487695746867, 39.310297607517086], [-76.59484921723688, 39.309740345881686], [-76.59483419574119, 39.309614972846816], [-76.59483235197578, 39.309599579780055], [-76.59481222988144, 39.309217501666424], [-76.59479717145581, 39.30894642400533], [-76.59478316439831, 39.3086942865384], [-76.59477876457751, 39.308615079600244], [-76.59477516476436, 39.30855028661459], [-76.59476651518271, 39.308407825636124], [-76.59475947013195, 39.308291779452475], [-76.59475942348611, 39.3082910145497], [-76.59475688272086, 39.30824948273233], [-76.59474165078773, 39.3080005224527], [-76.5947093293679, 39.30747224353797], [-76.5946861524948, 39.30712176846359], [-76.5946763042284, 39.306912389685074], [-76.59467310299769, 39.30686491868384], [-76.59463395310108, 39.30628437932816], [-76.59461001791152, 39.305911936540156], [-76.59458954753693, 39.30555203248445], [-76.59457391528818, 39.30535018288356], [-76.59457153149958, 39.30520233162086], [-76.5945601681046, 39.30497314343712], [-76.59454399577449, 39.30471106190931], [-76.59453685471549, 39.304492081226286], [-76.59453130723847, 39.30441496897999], [-76.59452866828273, 39.30437828914805], [-76.59452476251913, 39.304289215103665], [-76.59448967481327, 39.30429055774748], [-76.59444655881255, 39.30429220685253], [-76.59410763222745, 39.304306135055796], [-76.59387087992395, 39.304309782040725], [-76.59361718919105, 39.30433378382898], [-76.59359004119321, 39.30433469427766], [-76.59333884304624, 39.30434311648256], [-76.59318639599886, 39.30435151167928], [-76.59294753589077, 39.30435552782482], [-76.59257705348351, 39.30437525936833], [-76.59231795503824, 39.30438325116082], [-76.59214781932245, 39.30438953081101], [-76.59203477314797, 39.30439370430692], [-76.59197892299301, 39.30439701702962], [-76.59197768241194, 39.304395811111505], [-76.59126179584004, 39.304422737249695], [-76.59046424151144, 39.304461485997145], [-76.59005006246515, 39.30447273697397], [-76.58995220234755, 39.304475431962665], [-76.58982703904253, 39.30448059151564], [-76.58980254648517, 39.30446257013398], [-76.58943218451219, 39.30418385143596], [-76.58857790787764, 39.30356688085247], [-76.58783554657057, 39.303073505784994], [-76.5872390361549, 39.30267705550426], [-76.5866441598187, 39.3025044570636], [-76.58578857162063, 39.30230289529962], [-76.58531599063082, 39.30226794355649], [-76.58512092647511, 39.30232387391149], [-76.5826560981325, 39.30261677816754], [-76.58266883793027, 39.304746624042075], [-76.58266683868764, 39.304746695307244], [-76.58268405490506, 39.30504893449582], [-76.58269686657528, 39.30527394057842], [-76.58271231745597, 39.30550067195944], [-76.58273425782997, 39.30582592147906], [-76.58273706407483, 39.30591492266262], [-76.58274398499795, 39.306124358890116], [-76.58274602235191, 39.30615388033607], [-76.58279075767422, 39.30688434603346], [-76.58279622590113, 39.306987969618895], [-76.58280856376275, 39.307205930853776], [-76.58281359501821, 39.30727524304599], [-76.58282344420574, 39.30741091308611], [-76.58283662113134, 39.307615759546835], [-76.58284511539058, 39.3077478154282], [-76.58285784627752, 39.30794572355417], [-76.58286587707254, 39.308097056670654], [-76.58288369559465, 39.30843280219747], [-76.5828892174089, 39.30858314816187], [-76.58290355798839, 39.30896103849343], [-76.58294966586541, 39.31006043648711], [-76.5829897190917, 39.310837226699824], [-76.58300480174783, 39.311126748035754], [-76.5830193974989, 39.31137466530978], [-76.58302264081269, 39.311432027037625], [-76.58304895482371, 39.311882090215164], [-76.58305161648578, 39.31191394587451], [-76.58305305897844, 39.311919855445744], [-76.58305366133412, 39.31192232385187], [-76.58305660065784, 39.31193436747513], [-76.58306177615522, 39.31195557791544], [-76.58306960539265, 39.3120892778245], [-76.58307408061954, 39.31216569939283], [-76.58307743465963, 39.312222977727586], [-76.58307858339727, 39.31224315602507], [-76.58309345102931, 39.31250427744201], [-76.58310447408915, 39.31265823673786], [-76.58312363084077, 39.31265685628186], [-76.58312372248486, 39.312656849400945], [-76.58352656048686, 39.31262781690209], [-76.58384739803165, 39.312610420469305], [-76.58404183442902, 39.31260167074488], [-76.584076612047, 39.31260075436737], [-76.58424971615446, 39.312596192971505], [-76.58442933901016, 39.312591459810065], [-76.58481684347974, 39.31258124759742], [-76.58507179363845, 39.312574083602215], [-76.58542120724, 39.31256007693047], [-76.58598166509745, 39.31253387899606], [-76.58676383556079, 39.312497679803684], [-76.58749915004091, 39.31246577328475], [-76.58810853034174, 39.31243822546153], [-76.58826209394597, 39.31243095045303], [-76.58868651535967, 39.31241554036929], [-76.58904666937649, 39.31239792506627], [-76.58942935120503, 39.31238141513106], [-76.58948989325167, 39.31237853794639], [-76.58996361445578, 39.312355826396725], [-76.59042318705939, 39.3123354641393], [-76.59083150162732, 39.31231681050742], [-76.59107896614572, 39.312305489167734], [-76.59118911379532, 39.31230044355052], [-76.5915385408914, 39.31228443708318], [-76.5917307695405, 39.31227515263754], [-76.59198388294527, 39.312264042680695], [-76.59239052661563, 39.31224483918126], [-76.59243031083166, 39.31224068867442], [-76.5927396548944, 39.31222382891667], [-76.59304899880487, 39.31220696924529], [-76.59339365374612, 39.312195978661656], [-76.59361194203474, 39.312186953349325], [-76.594161184991, 39.31216877542683], [-76.59438289797679, 39.31215738161607], [-76.59462430782423, 39.31214497532955], [-76.59499853431905, 39.31213854528771]]], [[[-76.59500011476256, 39.31214646296684], [-76.59500066791462, 39.31214645316337], [-76.59499937411123, 39.312138494136676], [-76.59499853431905, 39.31213854528771], [-76.59500011476256, 39.31214646296684]]]]}, "properties": {"OBJECTID": 3, "Name": "Broadway East"}}, {"type": "Feature", "id": 4, "geometry": {"type": "Polygon", "coordinates": [[[-76.58931990805577, 39.32830476174285], [-76.58968438756729, 39.32831718953374], [-76.59025839196165, 39.32831764708333], [-76.59052128055227, 39.328311803064494], [-76.59065878843538, 39.32830874657186], [-76.59103043139025, 39.32830523563307], [-76.59142592276751, 39.32830420872085], [-76.5917913616552, 39.32830376248508], [-76.59200709807553, 39.328304860104794], [-76.59210994915941, 39.32830538369962], [-76.59246477125944, 39.32830695764371], [-76.59312980931843, 39.32830634492035], [-76.59362366761786, 39.328307720993855], [-76.59375728404586, 39.32830611294422], [-76.59416867889635, 39.328305817238586], [-76.59463531358791, 39.32830450991051], [-76.59501709062316, 39.328310526936995], [-76.59512310721234, 39.32831219735034], [-76.59532784066344, 39.32830842475286], [-76.59535834067859, 39.32830786229804], [-76.59611931483401, 39.32832796308225], [-76.59634868792432, 39.328320556870786], [-76.59641828841882, 39.328318308893785], [-76.59653547840784, 39.32831082603933], [-76.5967793236729, 39.32830519179873], [-76.59711821034382, 39.3283118457181], [-76.59742710718373, 39.3283082715158], [-76.59756527132075, 39.32831029482922], [-76.59770237434053, 39.328312302638714], [-76.5978866535506, 39.32831035976287], [-76.59788409858253, 39.32813755645886], [-76.59793509468535, 39.32795000729675], [-76.59801122359086, 39.32777198122301], [-76.59808093716585, 39.32763408771696], [-76.5981985554262, 39.32746444073355], [-76.59834597048547, 39.327260748891604], [-76.59853881932318, 39.32699286421122], [-76.59868888651802, 39.326788666645896], [-76.59883099156187, 39.3265858135474], [-76.59892986156297, 39.326448874719595], [-76.59898599826862, 39.32636756181147], [-76.5990737289836, 39.3262468857403], [-76.59915079169907, 39.32613732901977], [-76.59924251311476, 39.3260140947816], [-76.59938185238124, 39.32583096430246], [-76.59948950892533, 39.32570263728357], [-76.5996006634985, 39.32558118400072], [-76.59982161785203, 39.32534222139032], [-76.59997852214623, 39.32517819726334], [-76.60010205429653, 39.32505507058695], [-76.60016033124451, 39.324998731396505], [-76.60028954047534, 39.32487381872522], [-76.60036066947528, 39.32479770210679], [-76.60042867868424, 39.32472569217248], [-76.60052995338339, 39.324631487254536], [-76.60064059267756, 39.32452204182731], [-76.60078937109942, 39.324388191173306], [-76.60092005231246, 39.3242496454158], [-76.6009884829621, 39.32418209890273], [-76.60109911215649, 39.324074197787915], [-76.6012879982226, 39.32387819383653], [-76.60147066504797, 39.323689372696485], [-76.60165521278509, 39.32347996825928], [-76.6018383157658, 39.323290977767584], [-76.60198189494047, 39.32313771657373], [-76.60231384617732, 39.32280080072268], [-76.60259616528857, 39.32251906910475], [-76.6027350726227, 39.32238044910376], [-76.60304698281307, 39.32207091830496], [-76.60349522160679, 39.32163847155401], [-76.60357429856663, 39.32156083406015], [-76.60389773238214, 39.32124379061465], [-76.60454326047712, 39.320610037867844], [-76.60544025149153, 39.31976615442403], [-76.60611607298654, 39.31910452256689], [-76.60645872979953, 39.31875776465494], [-76.60666707982868, 39.31855306529636], [-76.60677059500597, 39.31845011246534], [-76.60692206636583, 39.31830407840669], [-76.6070215954262, 39.31821405133165], [-76.60703083434628, 39.31821360482531], [-76.6070402406387, 39.318204927798384], [-76.60686590981645, 39.31821858207002], [-76.60670116138331, 39.3182233759191], [-76.60621905556482, 39.31823806337934], [-76.60614834788888, 39.318240227850616], [-76.60607348275484, 39.31824305120665], [-76.60577228466028, 39.318254411286475], [-76.60570113786876, 39.31825691810337], [-76.60543157488385, 39.31826630810808], [-76.6050546173841, 39.31828151490576], [-76.60483853266248, 39.31828782432964], [-76.60453405911966, 39.31829881262502], [-76.60397901479668, 39.31831976329004], [-76.60350263170972, 39.31833754847701], [-76.60315219497943, 39.318350950667785], [-76.60305849928145, 39.318356299082595], [-76.60283053195279, 39.31835381206475], [-76.60260445749013, 39.31832953908778], [-76.60230320585232, 39.31826756790181], [-76.60225758645525, 39.318258183503296], [-76.60205375360609, 39.31820653158375], [-76.60147042698996, 39.3180719118534], [-76.60100799092028, 39.31796721557758], [-76.60035759120657, 39.317817947815236], [-76.60013248959599, 39.31776822529754], [-76.59995206502052, 39.3177283708604], [-76.59948130617641, 39.317611970960755], [-76.59904978111759, 39.3175111464417], [-76.59900300985421, 39.31750034716576], [-76.5986226662082, 39.3174115387995], [-76.59821016162134, 39.31730717042602], [-76.59806938349395, 39.3172788917948], [-76.59764968723115, 39.31719560420603], [-76.5972923428902, 39.31710377796578], [-76.59647216217685, 39.316902089050544], [-76.59596472241762, 39.31678829453979], [-76.5954300174378, 39.31665415682764], [-76.59517638084851, 39.316892999204576], [-76.59501064674653, 39.317057157129014], [-76.59497779613278, 39.31708964039373], [-76.59493900720611, 39.31712799501161], [-76.59482796104126, 39.317236263829535], [-76.59478805323504, 39.31727517300617], [-76.59455566000548, 39.317486016172104], [-76.5944661497658, 39.317556057091814], [-76.5943753215365, 39.31762962885123], [-76.59437160578936, 39.31762928004545], [-76.59416961562533, 39.31772055505272], [-76.59374591362581, 39.31810603596098], [-76.59354913369512, 39.31828999111298], [-76.59324173446187, 39.31857960791552], [-76.5930102381541, 39.31880719698042], [-76.59270188625918, 39.319107447837546], [-76.59261346232208, 39.3191948260848], [-76.59237352305637, 39.31943010765753], [-76.59221755000583, 39.319585201409325], [-76.59214422848247, 39.31965821694288], [-76.591899423576, 39.31989330859591], [-76.59158880342508, 39.320202985777726], [-76.59103340381688, 39.320742261926085], [-76.5905819498656, 39.32118305793651], [-76.59039356811455, 39.3213639482631], [-76.59013809087405, 39.32160980980315], [-76.58995691576243, 39.321766185342206], [-76.58988636983761, 39.32181707402351], [-76.58961746098501, 39.322015870959774], [-76.58947658805495, 39.32211730544556], [-76.5893357147167, 39.322218740660034], [-76.58922659982719, 39.32229145631932], [-76.58849695788054, 39.32277485900093], [-76.58826015521758, 39.32292228540614], [-76.58785754505621, 39.323165567270806], [-76.58776308659937, 39.32322460729049], [-76.58766862798524, 39.32328364723321], [-76.58759919091766, 39.32333316567251], [-76.5874600928296, 39.3234323736844], [-76.5873659428779, 39.323514407967664], [-76.5872717915486, 39.323596442169354], [-76.58720710962537, 39.323663737203375], [-76.58707394384821, 39.32380629176658], [-76.58689073219706, 39.32400692822935], [-76.586632009753, 39.324312569744855], [-76.58621600368116, 39.32480409469657], [-76.5860052533478, 39.32506614782967], [-76.58535000010373, 39.32589229275922], [-76.58492848585759, 39.32641605216099], [-76.58445944321686, 39.32698065318074], [-76.58457092948441, 39.327033382725425], [-76.58457699305204, 39.3270370981376], [-76.58478050955635, 39.32716179036553], [-76.58492680501381, 39.3272311154691], [-76.58508558981744, 39.32728092286029], [-76.58525244873985, 39.327309996208974], [-76.58535188728123, 39.32731590377679], [-76.58537834077252, 39.327317475227126], [-76.5857759939502, 39.32732368188035], [-76.58631156355386, 39.32732093640332], [-76.58738976802208, 39.32731683117175], [-76.58741230868705, 39.32731856317429], [-76.5875405365371, 39.32732847019467], [-76.58760751453171, 39.327333725994805], [-76.5877127171537, 39.327356428277966], [-76.58776594804235, 39.32736791490329], [-76.58790786563678, 39.327432969381036], [-76.58804352307132, 39.327507191207296], [-76.588135955801, 39.32759556444824], [-76.58827882565369, 39.32777278422548], [-76.58847926930012, 39.32803053346908], [-76.5885362963061, 39.328102459906255], [-76.58865873445122, 39.32817221203757], [-76.58874986358825, 39.328230871645204], [-76.58883223684484, 39.32827525968152], [-76.58892710153617, 39.32829978655373], [-76.58895271325831, 39.32830279275274], [-76.58915995483386, 39.32830317411461], [-76.58923507622077, 39.32830292233139], [-76.58931990805577, 39.32830476174285]]]}, "properties": {"OBJECTID": 4, "Name": "Coldstream Homestead Montebello"}}, {"type": "Feature", "id": 5, "geometry": {"type": "MultiPolygon", "coordinates": [[[[-76.60945866070495, 39.318124468652044], [-76.60945480779166, 39.31770096150234], [-76.60945519998776, 39.317629751984], [-76.60946132480512, 39.316998993932685], [-76.60946204372169, 39.31694889012975], [-76.6094672345444, 39.31664793242915], [-76.60946812494882, 39.31661385358989], [-76.60947441249604, 39.316373152689756], [-76.60947787005863, 39.31624077596741], [-76.60947773819738, 39.31613143488731], [-76.60947747282027, 39.31591200058152], [-76.60947764670132, 39.31588042705097], [-76.60948143855049, 39.31575346044377], [-76.60948385042977, 39.31555596385255], [-76.60948312074825, 39.315513906148524], [-76.60948183845647, 39.315439960834304], [-76.60948440856788, 39.315214150462346], [-76.60948544305829, 39.31510673633258], [-76.60948622932848, 39.31504376365752], [-76.60948646418089, 39.31502175272173], [-76.60948714170145, 39.31495831309326], [-76.60949753297376, 39.31451563618581], [-76.60949235523822, 39.31433270020661], [-76.60949673522735, 39.314179138033786], [-76.60949955443202, 39.31403315591587], [-76.60950094584442, 39.31397546995416], [-76.60950144285934, 39.31388521336029], [-76.60950366274636, 39.31360611311019], [-76.60950432551165, 39.31352281628259], [-76.60948671157418, 39.3131912379144], [-76.60948640134862, 39.31316755785894], [-76.6094853882337, 39.312870181310345], [-76.6094851033132, 39.312841695812885], [-76.60948487268004, 39.312803773293396], [-76.60948289782958, 39.312623559131396], [-76.60948163587922, 39.31250844934729], [-76.60948076333324, 39.312433593763224], [-76.60947743539533, 39.312148087703825], [-76.60947661110755, 39.31205731143715], [-76.60947449293272, 39.31188039081669], [-76.60947378776855, 39.31184778566439], [-76.60946099932131, 39.31141321646378], [-76.60946076402041, 39.31140520076716], [-76.60895332142704, 39.31145619298888], [-76.60831928697476, 39.31150057476645], [-76.60830343878426, 39.3115116795899], [-76.60830334100831, 39.311511747721376], [-76.60829882289738, 39.31151186056865], [-76.60773628311468, 39.31152592209097], [-76.60729060249598, 39.311545726488674], [-76.60711852330964, 39.311553372492064], [-76.60659887298651, 39.3115754859861], [-76.6061894254059, 39.31159469590518], [-76.60611278719767, 39.31159839516539], [-76.60566775995136, 39.31162710406514], [-76.60519897591503, 39.31165271304003], [-76.60515714503977, 39.311654997328475], [-76.60452587582554, 39.31168555486718], [-76.60428960591008, 39.31169591264514], [-76.60415513215327, 39.31170180736602], [-76.60410077719278, 39.3117047174506], [-76.60365665655831, 39.31172861356367], [-76.60323819263719, 39.311746248809136], [-76.60311931943033, 39.31175288139153], [-76.60288775459945, 39.31176548431302], [-76.60283517413127, 39.311766851411505], [-76.60278703321745, 39.311768265019275], [-76.60261513217138, 39.311773314462414], [-76.60225586419251, 39.31179148956111], [-76.6018907038781, 39.311808325795916], [-76.60169421677377, 39.31181738452884], [-76.60120149095039, 39.31184248296661], [-76.60109045764555, 39.311848576230524], [-76.60086872735118, 39.31186074286874], [-76.60071936439218, 39.31186812788283], [-76.60064026247673, 39.311872493473054], [-76.60016112069107, 39.311894335149624], [-76.59972997884059, 39.31191075009471], [-76.59935613175678, 39.31192852348522], [-76.59905343895726, 39.31194156180913], [-76.5984546796272, 39.31196662919807], [-76.59808050724081, 39.31198706185389], [-76.59792836022403, 39.31199537328752], [-76.59775597238422, 39.31200696695208], [-76.59773655447417, 39.312008273234696], [-76.59756684600632, 39.312019703749534], [-76.59704405264576, 39.312049142330814], [-76.59669771875483, 39.312044864653075], [-76.59631853866378, 39.312067929040026], [-76.59586067123477, 39.31209998948799], [-76.59539669380177, 39.312118639194516], [-76.59524645953108, 39.31212326965509], [-76.5952243632585, 39.312124738341936], [-76.59499853431905, 39.31213854528771], [-76.59502043970535, 39.31224826968948], [-76.59503934938813, 39.31234065323412], [-76.59510334149941, 39.31256591565035], [-76.59511775803705, 39.31259231600572], [-76.59519794251831, 39.312704829905385], [-76.59531303493715, 39.312797892361644], [-76.59534537041043, 39.3128286906264], [-76.59542326061413, 39.31288249607254], [-76.59573240518132, 39.31305618422164], [-76.5961537728667, 39.31330592965363], [-76.59648493492858, 39.313492903717794], [-76.59683455475258, 39.31369304073048], [-76.5972300922743, 39.31390694176536], [-76.59738859655698, 39.31400220463716], [-76.5974643282145, 39.31404742252129], [-76.59768743789743, 39.31420262086976], [-76.59774286827064, 39.31424416424992], [-76.59783525282327, 39.314313118821055], [-76.59783179834888, 39.31431661723885], [-76.59751576607654, 39.31463668031935], [-76.59711255859682, 39.315046348874006], [-76.59698895516568, 39.315171315443834], [-76.59690788270481, 39.315253193374105], [-76.59671951552252, 39.31543632437663], [-76.59666950588208, 39.315481424652084], [-76.59654070622973, 39.31559126185604], [-76.59652113728278, 39.31562994150699], [-76.59643654084238, 39.3156802517914], [-76.59628955915431, 39.31580966001214], [-76.59593435982981, 39.316163039087044], [-76.59588894885401, 39.316208216986944], [-76.59552676485576, 39.316560149393325], [-76.5954300174378, 39.31665415682764], [-76.59543818791276, 39.31665620624572], [-76.59543224446696, 39.31666198033468], [-76.59596676986169, 39.316796102105926], [-76.5964741406238, 39.31691000896466], [-76.5972945531936, 39.31711172658315], [-76.59765178998599, 39.31720350831122], [-76.59807145285369, 39.31728676335072], [-76.59821217069361, 39.31731504267396], [-76.59862469531762, 39.31741936246778], [-76.5990053336524, 39.31750815291676], [-76.59905204507396, 39.31751907719229], [-76.59948336287069, 39.3176198559586], [-76.59995409885292, 39.317736207131055], [-76.6001299727245, 39.317775098488966], [-76.60035967087144, 39.317825890523245], [-76.60101012817218, 39.31797503596648], [-76.60147271324219, 39.3180798471344], [-76.6020560194088, 39.31821440373088], [-76.60225980888161, 39.31826614377327], [-76.60230082068179, 39.3182745640861], [-76.60260678616864, 39.31833737720774], [-76.60283257837246, 39.318361738400775], [-76.60306052370419, 39.31836422353871], [-76.60315435288352, 39.31835885485569], [-76.60350494025062, 39.31834548018921], [-76.60398127696565, 39.3183277020425], [-76.60453605399286, 39.31830665859039], [-76.60484071275509, 39.31829573396522], [-76.60505677185883, 39.31828944787078], [-76.60543363588295, 39.31827416689051], [-76.60570322079981, 39.31826480037421], [-76.60577463184961, 39.31826231966346], [-76.60607397908265, 39.318250982197874], [-76.60615068617304, 39.31824807674048], [-76.60622108756016, 39.31824594006559], [-76.60670351902179, 39.3182313005258], [-76.60686590981645, 39.31821858207002], [-76.6070215954262, 39.31821405133165], [-76.60720289049662, 39.31820529137701], [-76.60720306326313, 39.3182052946567], [-76.607233349816, 39.31820394386441], [-76.60754256928972, 39.3181901531773], [-76.60770254376555, 39.31818382444521], [-76.60789389433855, 39.31817622653396], [-76.60827216282904, 39.31816341731029], [-76.60887935370918, 39.31813918626209], [-76.60945866070495, 39.318124468652044]]], [[[-76.6094587311506, 39.318128311497446], [-76.60946719563427, 39.31812803517072], [-76.6094671169382, 39.31812400584208], [-76.60945866070495, 39.318124468652044], [-76.6094587311506, 39.318128311497446]]]]}, "properties": {"OBJECTID": 5, "Name": "East Baltimore Midway"}}, {"type": "Feature", "id": 6, "geometry": {"type": "MultiPolygon", "coordinates": [[[[-76.61129313196126, 39.301206709376615], [-76.61129041560721, 39.30120670849702], [-76.61082527561696, 39.30120655863143], [-76.61047679798418, 39.301224707103614], [-76.61025529853089, 39.30123624269576], [-76.61019067768156, 39.301238731497754], [-76.60982454188424, 39.30125282999719], [-76.60968922278549, 39.30125802019975], [-76.60951748476083, 39.3012645079116], [-76.60907612030489, 39.30128140310696], [-76.60860028928475, 39.30129955098722], [-76.60829119600028, 39.30131016412834], [-76.60817704991248, 39.30131409816055], [-76.60801844148203, 39.30131991856956], [-76.60785320786717, 39.30132605984151], [-76.6077705862054, 39.30132990142251], [-76.60725395495791, 39.301354463357555], [-76.60691079541405, 39.3013687250598], [-76.60634132437235, 39.30138689637166], [-76.6056910462905, 39.30141211062279], [-76.60562824334036, 39.30141453365883], [-76.60534430113367, 39.30142558737242], [-76.60487849155139, 39.30144358810697], [-76.60414155170108, 39.301472337749594], [-76.60359066773132, 39.30149390376848], [-76.60354024326725, 39.30149587743865], [-76.6034419839055, 39.30150301132686], [-76.60335729914014, 39.301509159591234], [-76.60316332976652, 39.30151948666877], [-76.6028793534905, 39.30152964256281], [-76.6028412366511, 39.301531005381975], [-76.60282137289641, 39.301531715591075], [-76.60274538284459, 39.30153420420309], [-76.60254125386727, 39.301544323859446], [-76.60225936906627, 39.30155692638364], [-76.60204464688987, 39.30156580860791], [-76.60184858508858, 39.301571283956], [-76.60167919845442, 39.30157601440822], [-76.60152774750776, 39.30158190256677], [-76.60150002984724, 39.30158309484502], [-76.60149958451571, 39.30158311945664], [-76.60112237350296, 39.30162767365746], [-76.60092110261623, 39.30163909549265], [-76.60074572227612, 39.301645195011794], [-76.60074256356957, 39.30164530407924], [-76.60058299081878, 39.3016508274396], [-76.60031796293111, 39.30166496345601], [-76.6001844066249, 39.301669162383085], [-76.59994531520809, 39.30167887571898], [-76.59981270356809, 39.301683925053084], [-76.59957944076596, 39.301692091078884], [-76.59937077798996, 39.3016980643085], [-76.59936358879717, 39.301698270389224], [-76.5993646276528, 39.301716319711275], [-76.5993685980454, 39.30179849225874], [-76.59936874749808, 39.301803026281654], [-76.59937022737263, 39.301848087226226], [-76.5993762028986, 39.30198413821876], [-76.59938079580364, 39.30208870031098], [-76.599382035372, 39.30211493640005], [-76.59939183763372, 39.30232330693835], [-76.59939423629203, 39.30236827282543], [-76.5994166123149, 39.3027077626365], [-76.59944880047564, 39.303030815509565], [-76.59945349157738, 39.30311494151813], [-76.59946203576382, 39.30326817414714], [-76.59947093472357, 39.30341320117845], [-76.59947297663822, 39.303442723250924], [-76.59949295730122, 39.303737591169295], [-76.59950293918796, 39.304003767391286], [-76.59951167933146, 39.304098518091266], [-76.59951321007443, 39.30409845845411], [-76.59974319707241, 39.30408952564485], [-76.59996768318899, 39.30407433321325], [-76.6000304329149, 39.304070084478134], [-76.60025484909525, 39.304067072197356], [-76.6004545637974, 39.304057971050355], [-76.60059502951556, 39.30405879178958], [-76.600922853223, 39.30404840929925], [-76.6009462700968, 39.304047287219696], [-76.60126749082399, 39.304032591938274], [-76.60165452433608, 39.30401897553292], [-76.60209309585538, 39.303999457689045], [-76.60217766598636, 39.3039956942456], [-76.60286169102329, 39.303955624844626], [-76.60309775439381, 39.30394881017752], [-76.60356770484975, 39.30393226893887], [-76.6035680560064, 39.30394017606704], [-76.60357142359594, 39.30401596720625], [-76.60357833679382, 39.30417158907337], [-76.60357838386767, 39.304213364533084], [-76.60357840366, 39.30423139595015], [-76.60358045459019, 39.304259200225246], [-76.60359536209332, 39.304437194123615], [-76.60361107642088, 39.30470836590732], [-76.60363640642201, 39.30499707450606], [-76.60363737904622, 39.30501493798921], [-76.60364201524398, 39.305100049906045], [-76.60364414648396, 39.30527199350911], [-76.60366757165893, 39.30558626269688], [-76.60368562851271, 39.30591201099767], [-76.60369674703209, 39.30605670186031], [-76.60369838421269, 39.30605669026759], [-76.60376389454439, 39.30605624103079], [-76.6040099840816, 39.306049520473046], [-76.6041045317318, 39.30604606399181], [-76.60443148965754, 39.30603446806435], [-76.60462732901377, 39.30602593676278], [-76.60476111087478, 39.30602013287909], [-76.60479911629253, 39.30601734405983], [-76.6049705297523, 39.3060261074227], [-76.60517379440408, 39.306002300827686], [-76.60532268281837, 39.30599954297892], [-76.60551742267907, 39.30600687962837], [-76.60558424167522, 39.30600564470782], [-76.60571881424842, 39.306003158972764], [-76.60592491456552, 39.30597496580444], [-76.60622846621851, 39.30596174068067], [-76.60648341347134, 39.305950583181925], [-76.60664644950899, 39.30594460939705], [-76.60706706156066, 39.305931773918154], [-76.60723387450643, 39.305927130655526], [-76.60732817269327, 39.3059240661795], [-76.60763525963122, 39.30591050694965], [-76.60793128392214, 39.30590017074343], [-76.6080885717074, 39.3058953764863], [-76.6084505278775, 39.30586466666993], [-76.60845251674874, 39.305872564822124], [-76.60846318607976, 39.30591493681491], [-76.6084911862812, 39.30591388344893], [-76.60979882378169, 39.30591388421193], [-76.60989118612214, 39.30591388373006], [-76.61039118703891, 39.30591388345862], [-76.61210221907939, 39.306304219322804], [-76.6120823670287, 39.30605688547225], [-76.61207051013021, 39.305907339749076], [-76.61206997002748, 39.30590052194521], [-76.61179788014573, 39.30573489398064], [-76.61154703230277, 39.30550679069604], [-76.61136627879971, 39.3052177231322], [-76.6112772747515, 39.30495547258486], [-76.61127518789507, 39.30494932252306], [-76.61126401637675, 39.30471526726521], [-76.61126330732871, 39.30469909814397], [-76.61125934787358, 39.30461534802833], [-76.61126626113816, 39.304490172963646], [-76.61127749274998, 39.30428680309801], [-76.61133602640655, 39.30376209165083], [-76.61134501384923, 39.30371346070379], [-76.61136106500683, 39.303626614197434], [-76.61138382700592, 39.30350331193838], [-76.61139000195895, 39.303262928496004], [-76.61139283541769, 39.30319840494962], [-76.61139656317422, 39.30311349122562], [-76.61140362999754, 39.30295238901767], [-76.6113971995844, 39.302675070643666], [-76.61139076656694, 39.302559050789455], [-76.6113882984763, 39.302513941725415], [-76.61138233372635, 39.3024049313032], [-76.6113594392936, 39.302069216389384], [-76.61130132806326, 39.30130834551928], [-76.61129716702825, 39.30125674988652], [-76.61129313196126, 39.301206709376615]]], [[[-76.61129457335865, 39.30120665019136], [-76.61129312873508, 39.30120666342734], [-76.61129313196126, 39.301206709376615], [-76.61129457335865, 39.30120665019136]]]]}, "properties": {"OBJECTID": 6, "Name": "Johnston Square"}}, {"type": "Feature", "id": 7, "geometry": {"type": "Polygon", "coordinates": [[[-76.6371439068046, 39.3105246077247], [-76.6373025452242, 39.310688969785446], [-76.63732451584131, 39.310712032034864], [-76.63744627111318, 39.310838754656096], [-76.63748359072643, 39.31087759589082], [-76.63755569440495, 39.31094594229838], [-76.63771518876872, 39.311115624463994], [-76.63794458653679, 39.31135227213063], [-76.63800874953336, 39.311418362615846], [-76.63826846541313, 39.311687191449074], [-76.6385343453072, 39.3119611873462], [-76.63860100260256, 39.31203360575027], [-76.63862177760988, 39.31205617676072], [-76.63888198505138, 39.31231659895366], [-76.63924369823083, 39.31268474790137], [-76.63954871058156, 39.31299712550722], [-76.63959881347367, 39.313048414019015], [-76.64006865518307, 39.31352688550986], [-76.64052574540331, 39.31399467633783], [-76.64069892184472, 39.31417023208028], [-76.6408844037233, 39.31435852216712], [-76.64104572257156, 39.31452065595645], [-76.64114915638753, 39.31459733043215], [-76.6413513350919, 39.31471703430108], [-76.64156907196731, 39.31481825228868], [-76.64189134169106, 39.31495342074086], [-76.64215135407512, 39.31508187819634], [-76.64238969793873, 39.315214558515876], [-76.64249055354561, 39.315278012608914], [-76.64315339822416, 39.315687904872384], [-76.64349851216551, 39.31593879388105], [-76.64357281784896, 39.31574563321019], [-76.64381160528661, 39.31552826078683], [-76.64410367763527, 39.31525562596767], [-76.64430252206155, 39.31507279430047], [-76.64431989487609, 39.31505613882891], [-76.6445301821549, 39.31485453999891], [-76.64454446482935, 39.31484084672807], [-76.64473716803708, 39.314665453062204], [-76.64478723575114, 39.31461988131981], [-76.6450677572029, 39.31435904862621], [-76.64525462005592, 39.31418306267519], [-76.64532964921192, 39.314112399922024], [-76.64542730077596, 39.314020720564706], [-76.64557550536001, 39.31389144306307], [-76.64577584838936, 39.31369817004454], [-76.64582055585994, 39.31365503984907], [-76.64592308773543, 39.31355874220875], [-76.6460260780531, 39.31346021379297], [-76.6462468678395, 39.31325240664483], [-76.64624231336285, 39.31323376717169], [-76.64622958971165, 39.31318169328968], [-76.64626599991406, 39.31314695727648], [-76.6463285981082, 39.31307949195424], [-76.64647706894321, 39.31294353050552], [-76.64654142274435, 39.312884350968005], [-76.64652498481453, 39.31254849368734], [-76.64648931287813, 39.31199396667334], [-76.64646281293568, 39.31154928876749], [-76.64642883151521, 39.311010551448945], [-76.64642393472177, 39.31092988957446], [-76.64638393206116, 39.310269646704896], [-76.64637739435341, 39.31016323994087], [-76.64636412324832, 39.30990178782331], [-76.6463637178554, 39.3098937960186], [-76.6459916114521, 39.30991033488878], [-76.645947923721, 39.30991227680351], [-76.64569871476253, 39.30992285086471], [-76.64566071137573, 39.30992445401347], [-76.64534036934302, 39.30993721240815], [-76.64530376549631, 39.30993857375976], [-76.64499042407682, 39.30995022729007], [-76.64473644021426, 39.309963081807496], [-76.64432495373035, 39.30998390733042], [-76.64427457300472, 39.30998752898796], [-76.64369172282524, 39.31000920256847], [-76.64369000645326, 39.31000926672222], [-76.64366622716892, 39.30973035461235], [-76.64365694734092, 39.30964298578938], [-76.64365439996322, 39.309622214790465], [-76.64365191948845, 39.30960820505173], [-76.64365096449774, 39.309602812946146], [-76.64362122734212, 39.30954232272251], [-76.64356363342372, 39.309487409234535], [-76.64313907071715, 39.309141559807415], [-76.6430299902956, 39.30904668086121], [-76.64254998168015, 39.308659306277725], [-76.64208091450921, 39.30899283016839], [-76.6416153931756, 39.30932430385714], [-76.64155922162355, 39.3092769060034], [-76.64133782548294, 39.30909008966751], [-76.6408325820863, 39.30866533349704], [-76.64081347683616, 39.308649206547514], [-76.64073033986473, 39.308579286270025], [-76.64067479659347, 39.30853237991032], [-76.64057066513581, 39.308444440583465], [-76.64037579928541, 39.30827979811914], [-76.64022183410516, 39.3081513188325], [-76.63984033539111, 39.30783021574025], [-76.63972344755624, 39.30773333258131], [-76.63942522456112, 39.30748120464365], [-76.63912128055757, 39.30722408168452], [-76.63880062190486, 39.30695420859637], [-76.63879124985795, 39.30693491084396], [-76.63869963515025, 39.30674626967398], [-76.63859017171225, 39.30655529191256], [-76.6385367719883, 39.30645851990764], [-76.63840686590554, 39.30629150220119], [-76.63821515447722, 39.305944292605375], [-76.63805432487308, 39.30565707439077], [-76.63800109292318, 39.30556200775777], [-76.63786021933055, 39.30529440070649], [-76.63765274580376, 39.30491985761581], [-76.63747241031281, 39.3045949889273], [-76.63722169347693, 39.30412696446594], [-76.63698712834389, 39.30369691290707], [-76.63686439183411, 39.303477263607924], [-76.63683392754241, 39.3034227448946], [-76.63665101084635, 39.30308585431777], [-76.63634077279873, 39.30251142651254], [-76.63629350596848, 39.30242582639338], [-76.63610532321422, 39.30208342753974], [-76.63599592178903, 39.301883353206314], [-76.63587733061289, 39.30166591792757], [-76.63564364578828, 39.30123964111432], [-76.63561869134115, 39.301195977930206], [-76.63560613662037, 39.3011736623894], [-76.63541734455673, 39.300838094433395], [-76.63535078601946, 39.30071396541509], [-76.63532196355693, 39.30066054036699], [-76.63508825775277, 39.30023940735598], [-76.63505582684068, 39.30019023160559], [-76.63488336368172, 39.299884772546314], [-76.63476302097249, 39.29966613073978], [-76.63449872396026, 39.29918244102328], [-76.63444272119247, 39.299078453655014], [-76.63434967812027, 39.298877397106864], [-76.63420375438527, 39.298562467872884], [-76.63411157089214, 39.298393482533555], [-76.63402909850767, 39.29824487276439], [-76.63388687388986, 39.298003054647545], [-76.63382163595006, 39.29789182940175], [-76.63368055674141, 39.29767003300683], [-76.63355282128967, 39.297489852503965], [-76.63344384174911, 39.29729345548233], [-76.63342777966663, 39.29726455320587], [-76.63321529410115, 39.296869120439524], [-76.63316368711598, 39.296788527066674], [-76.63307984907732, 39.29663461582832], [-76.63296577955371, 39.29642207344021], [-76.63293815515547, 39.29637146813961], [-76.63276713848065, 39.29606177742384], [-76.63266287083317, 39.29587661865217], [-76.63254135137409, 39.29565436214836], [-76.63237714037994, 39.29536642196044], [-76.63201704392955, 39.2953913778917], [-76.63163712916102, 39.29540528673997], [-76.63124574922018, 39.29541607057622], [-76.63089056226875, 39.295431085989655], [-76.63080440501213, 39.2954364774412], [-76.63080463182482, 39.29544345902916], [-76.63081507459064, 39.29576482286587], [-76.63084085448742, 39.29615591659336], [-76.63086369597548, 39.29651959818259], [-76.63088398231832, 39.29694950621388], [-76.63085819384861, 39.29695089702919], [-76.63085808600451, 39.29695090299563], [-76.63072143212122, 39.2969598585534], [-76.63068250689356, 39.296963434712396], [-76.6306806836196, 39.29696471796529], [-76.630673003814, 39.29696753030995], [-76.63062264719301, 39.296985968145286], [-76.6305784173586, 39.29700440360542], [-76.63050646887287, 39.29704847211378], [-76.63043355378, 39.29710182344801], [-76.6304072139033, 39.29715562931923], [-76.63038087398661, 39.297209435183696], [-76.6301320201445, 39.29741387794291], [-76.6299297766242, 39.297573854269864], [-76.62986766105936, 39.29762798959443], [-76.62975987076129, 39.29771471268904], [-76.62949204303995, 39.29793771924247], [-76.62927616344648, 39.29811495317492], [-76.62910458905812, 39.2982558134738], [-76.6286999463831, 39.298588013795694], [-76.62860733849764, 39.29867372090219], [-76.62852781459463, 39.2985953558247], [-76.6285220893449, 39.298589713394314], [-76.62826130326236, 39.29837182135367], [-76.62794465946219, 39.29810965165951], [-76.62772807999981, 39.29794670226336], [-76.62767760532464, 39.297908726718916], [-76.6276167773255, 39.2979680767177], [-76.6274619595815, 39.298095768224584], [-76.62721753929456, 39.29829507192225], [-76.62697708947155, 39.29849524613144], [-76.62638707718725, 39.29898052893666], [-76.62615018312023, 39.299175391960816], [-76.62594035748391, 39.299346147241955], [-76.62583205267396, 39.29943207781186], [-76.62575916361232, 39.29948990847651], [-76.62559915664845, 39.29961173865162], [-76.62550025221346, 39.29953075343189], [-76.62529450225682, 39.299362279163134], [-76.62491139548936, 39.299057161945306], [-76.62453182957229, 39.29875085404563], [-76.62421168112208, 39.29848506185391], [-76.62403349602944, 39.298352706471256], [-76.62374061510444, 39.29860933151553], [-76.6235746196751, 39.298760489174015], [-76.6235093205962, 39.29883011927829], [-76.62340616258187, 39.2989312481928], [-76.62335613749991, 39.298980289011304], [-76.62336170910302, 39.29898466653798], [-76.62343311251331, 39.299040764889234], [-76.62349589455535, 39.29911252225904], [-76.62367929438958, 39.299261194330526], [-76.62394186736975, 39.29947326893268], [-76.62411257118454, 39.29960790370337], [-76.62418511113644, 39.2996650311817], [-76.62455924268377, 39.299958732859196], [-76.62475342152119, 39.30011183243849], [-76.62483040546356, 39.300172610956324], [-76.62482644857485, 39.30017547624032], [-76.6245914099704, 39.30034567387112], [-76.62429829836744, 39.30056128796989], [-76.624128235829, 39.30069170781108], [-76.62406722907873, 39.30073849251086], [-76.62407336013254, 39.30074343836701], [-76.6242972614585, 39.30092403657933], [-76.6245642174573, 39.301143844961004], [-76.62502258327525, 39.30150308205438], [-76.6259466431035, 39.302258296984405], [-76.62602279499316, 39.30230864576655], [-76.62613184269135, 39.30240302636155], [-76.6262356184111, 39.302492242259], [-76.62645336104208, 39.30266504311417], [-76.62673573948535, 39.302894333557475], [-76.62683214687044, 39.302976429345165], [-76.62695456115806, 39.30308066984368], [-76.62699512180832, 39.30311356992261], [-76.62701851571691, 39.303132545652176], [-76.62707682516857, 39.30310022334206], [-76.62780199332289, 39.302570484709264], [-76.62802237319173, 39.302746552632016], [-76.62822909425071, 39.302916227482235], [-76.62843452272708, 39.30307920615223], [-76.62864963235474, 39.30325027861745], [-76.6287763333282, 39.3033488316637], [-76.62913479678072, 39.30364390372527], [-76.62938072511554, 39.30383497878555], [-76.62956767456461, 39.30398554235782], [-76.62975334121391, 39.304127693026], [-76.62995079154655, 39.304297849869585], [-76.63018041577962, 39.30448166220807], [-76.6304711741343, 39.30471714634259], [-76.63063702180094, 39.304849109649986], [-76.6307341918273, 39.304936413631424], [-76.63091016070975, 39.3050757864361], [-76.63118852272261, 39.305317749466546], [-76.63148639390685, 39.30554587434551], [-76.63162456212419, 39.305649436862595], [-76.63168700479767, 39.30570419945858], [-76.63177853961463, 39.30577106386033], [-76.6319188585963, 39.305885957055885], [-76.6321959752561, 39.306114015967545], [-76.63248765687695, 39.30634417798442], [-76.63266451226455, 39.30648475336126], [-76.63292624542014, 39.30669783238955], [-76.63315719757989, 39.306884561322704], [-76.63337892643997, 39.30706096628411], [-76.6335883837063, 39.30721828338718], [-76.63364647531678, 39.30726119361999], [-76.63382719023456, 39.30742494123316], [-76.63403263660034, 39.30759014103709], [-76.63428339766274, 39.30779134325479], [-76.63451172592323, 39.30797428711363], [-76.634603260147, 39.30804234995532], [-76.63459915109888, 39.3080454844142], [-76.63447508918705, 39.308140104747544], [-76.63438539304404, 39.30820849381819], [-76.63426442694475, 39.30830074736822], [-76.63420367983733, 39.308344657418], [-76.63408750675826, 39.308428547786896], [-76.63398080096145, 39.308504479638934], [-76.63392256490692, 39.30854592028863], [-76.63379396924157, 39.308640238429184], [-76.63379979990272, 39.30864546476162], [-76.6339294053941, 39.30876163443957], [-76.63426507624136, 39.309031224241714], [-76.6344608715844, 39.30918438160322], [-76.63464435730072, 39.30932565814198], [-76.63470738070049, 39.30935519704163], [-76.63476429242326, 39.309369444624814], [-76.63482352775215, 39.30936207950034], [-76.63484965027384, 39.309350491406434], [-76.63483516872232, 39.3093657286004], [-76.63465599191207, 39.309554259774806], [-76.63467231270431, 39.30954730805328], [-76.6347511800331, 39.30951371368751], [-76.63481522036041, 39.30951648707752], [-76.63494297830712, 39.30958517831395], [-76.63518319501604, 39.309777423733536], [-76.6354718146514, 39.31000671008513], [-76.63573976645635, 39.310218259751814], [-76.63573737884988, 39.31022236249061], [-76.63569530380398, 39.31029466527972], [-76.63569898158758, 39.31035270234344], [-76.63569902987285, 39.31035346002709], [-76.63575474999024, 39.31035135204469], [-76.6363346989764, 39.310329407086584], [-76.63696969742874, 39.31029516381356], [-76.6371439068046, 39.3105246077247]]]}, "properties": {"OBJECTID": 7, "Name": "West"}}]}